{
 "generated_at": "2026-07-21T07:32:50Z",
 "sources": [
  {
   "name": "CelesTrak",
   "url": "https://celestrak.org/NORAD/elements/",
   "license": "frei verfügbar; Attribution. Ursprünglich USSPACECOM/Space-Track."
  },
  {
   "name": "GCAT (J. McDowell, planet4589.org)",
   "url": "https://planet4589.org/space/gcat/",
   "license": "CC-BY 4.0"
  }
 ],
 "satellites": [
  {
   "norad": 68835,
   "name": "PRSC-E03",
   "intl": "2026-092A",
   "group": "resource",
   "gcat": {
    "class": "C",
    "category": "IMG",
    "owner": "SUPA",
    "state": "PK"
   },
   "omm": {
    "OBJECT_NAME": "PRSC-E03",
    "OBJECT_ID": "2026-092A",
    "EPOCH": "2026-07-20T10:57:30.044736",
    "MEAN_MOTION": 15.06821808,
    "ECCENTRICITY": 0.00050069,
    "INCLINATION": 38.0004,
    "RA_OF_ASC_NODE": 253.4742,
    "ARG_OF_PERICENTER": 283.2867,
    "MEAN_ANOMALY": 76.7337,
    "EPHEMERIS_TYPE": 0,
    "CLASSIFICATION_TYPE": "U",
    "NORAD_CAT_ID": 68835,
    "ELEMENT_SET_NO": 999,
    "REV_AT_EPOCH": 1297,
    "BSTAR": 0.000077984655,
    "MEAN_MOTION_DOT": 0.00001074,
    "MEAN_MOTION_DDOT": 0
   }
  },
  {
   "norad": 62725,
   "name": "PRSC-EO1",
   "intl": "2025-012A",
   "group": "resource",
   "gcat": {
    "class": "C",
    "category": "IMG",
    "owner": "JHQJ/YINHE",
    "state": "CN"
   },
   "omm": {
    "OBJECT_NAME": "PRSC-EO1",
    "OBJECT_ID": "2025-012A",
    "EPOCH": "2026-07-20T22:46:55.432416",
    "MEAN_MOTION": 15.17663483,
    "ECCENTRICITY": 0.00071592,
    "INCLINATION": 97.4208,
    "RA_OF_ASC_NODE": 273.7463,
    "ARG_OF_PERICENTER": 130.4584,
    "MEAN_ANOMALY": 229.7275,
    "EPHEMERIS_TYPE": 0,
    "CLASSIFICATION_TYPE": "U",
    "NORAD_CAT_ID": 62725,
    "ELEMENT_SET_NO": 999,
    "REV_AT_EPOCH": 8331,
    "BSTAR": 0.0002375283,
    "MEAN_MOTION_DOT": 0.00004719,
    "MEAN_MOTION_DDOT": 0
   }
  },
  {
   "norad": 65055,
   "name": "PRSC-S1",
   "intl": "2025-164A",
   "group": "resource",
   "gcat": {
    "class": "C",
    "category": "IMG-R",
    "owner": "SUPA",
    "state": "PK"
   },
   "omm": {
    "OBJECT_NAME": "PRSC-S1",
    "OBJECT_ID": "2025-164A",
    "EPOCH": "2026-07-20T22:34:03.259200",
    "MEAN_MOTION": 15.06666299,
    "ECCENTRICITY": 0.00074983,
    "INCLINATION": 41.1302,
    "RA_OF_ASC_NODE": 97.6789,
    "ARG_OF_PERICENTER": 232.4302,
    "MEAN_ANOMALY": 127.5831,
    "EPHEMERIS_TYPE": 0,
    "CLASSIFICATION_TYPE": "U",
    "NORAD_CAT_ID": 65055,
    "ELEMENT_SET_NO": 999,
    "REV_AT_EPOCH": 5352,
    "BSTAR": 0.00021965893,
    "MEAN_MOTION_DOT": 0.00003141,
    "MEAN_MOTION_DDOT": 0
   }
  },
  {
   "norad": 64055,
   "name": "QPS-SAR-10 (WADATSUMI-I)",
   "intl": "2025-104A",
   "group": "sar",
   "gcat": {
    "class": "B",
    "category": "IMG-R",
    "owner": "QPS",
    "state": "J"
   },
   "omm": {
    "OBJECT_NAME": "QPS-SAR-10 (WADATSUMI-I)",
    "OBJECT_ID": "2025-104A",
    "EPOCH": "2026-07-20T23:19:05.224800",
    "MEAN_MOTION": 15.02011667,
    "ECCENTRICITY": 0.0013488,
    "INCLINATION": 42.0038,
    "RA_OF_ASC_NODE": 92.6051,
    "ARG_OF_PERICENTER": 204.9755,
    "MEAN_ANOMALY": 155.042,
    "EPHEMERIS_TYPE": 0,
    "CLASSIFICATION_TYPE": "U",
    "NORAD_CAT_ID": 64055,
    "ELEMENT_SET_NO": 999,
    "REV_AT_EPOCH": 6451,
    "BSTAR": 0.00023146616,
    "MEAN_MOTION_DOT": 0.00002903,
    "MEAN_MOTION_DDOT": 0
   }
  },
  {
   "norad": 64340,
   "name": "QPS-SAR-11 (YAMATSUMI-I)",
   "intl": "2025-125A",
   "group": "sar",
   "gcat": {
    "class": "B",
    "category": "IMG-R",
    "owner": "QPS",
    "state": "J"
   },
   "omm": {
    "OBJECT_NAME": "QPS-SAR-11 (YAMATSUMI-I)",
    "OBJECT_ID": "2025-125A",
    "EPOCH": "2026-07-20T12:17:21.657408",
    "MEAN_MOTION": 15.01857895,
    "ECCENTRICITY": 0.00106221,
    "INCLINATION": 42.0091,
    "RA_OF_ASC_NODE": 7.9909,
    "ARG_OF_PERICENTER": 336.2869,
    "MEAN_ANOMALY": 23.7467,
    "EPHEMERIS_TYPE": 0,
    "CLASSIFICATION_TYPE": "U",
    "NORAD_CAT_ID": 64340,
    "ELEMENT_SET_NO": 999,
    "REV_AT_EPOCH": 6063,
    "BSTAR": 0.00020871594,
    "MEAN_MOTION_DOT": 0.00002586,
    "MEAN_MOTION_DDOT": 0
   }
  },
  {
   "norad": 65116,
   "name": "QPS-SAR-12 (KUSHINADA-I)",
   "intl": "2025-169A",
   "group": "sar",
   "gcat": {
    "class": "B",
    "category": "IMG-R",
    "owner": "QPS",
    "state": "J"
   },
   "omm": {
    "OBJECT_NAME": "QPS-SAR-12 (KUSHINADA-I)",
    "OBJECT_ID": "2025-169A",
    "EPOCH": "2026-07-20T23:24:36.583488",
    "MEAN_MOTION": 15.01093037,
    "ECCENTRICITY": 0.0006292,
    "INCLINATION": 42.0099,
    "RA_OF_ASC_NODE": 189.876,
    "ARG_OF_PERICENTER": 72.4295,
    "MEAN_ANOMALY": 287.7218,
    "EPHEMERIS_TYPE": 0,
    "CLASSIFICATION_TYPE": "U",
    "NORAD_CAT_ID": 65116,
    "ELEMENT_SET_NO": 999,
    "REV_AT_EPOCH": 5249,
    "BSTAR": 0.0002324399,
    "MEAN_MOTION_DOT": 0.0000284,
    "MEAN_MOTION_DDOT": 0
   }
  },
  {
   "norad": 66316,
   "name": "QPS-SAR-14 (YACHIHOKO-I)",
   "intl": "2025-252A",
   "group": "sar",
   "gcat": {
    "class": "B",
    "category": "IMG-R",
    "owner": "QPS",
    "state": "J"
   },
   "omm": {
    "OBJECT_NAME": "QPS-SAR-14 (YACHIHOKO-I)",
    "OBJECT_ID": "2025-252A",
    "EPOCH": "2026-07-20T15:02:10.500288",
    "MEAN_MOTION": 14.99771863,
    "ECCENTRICITY": 0.00041062,
    "INCLINATION": 42.005,
    "RA_OF_ASC_NODE": 307.9628,
    "ARG_OF_PERICENTER": 117.6126,
    "MEAN_ANOMALY": 242.5117,
    "EPHEMERIS_TYPE": 0,
    "CLASSIFICATION_TYPE": "U",
    "NORAD_CAT_ID": 66316,
    "ELEMENT_SET_NO": 999,
    "REV_AT_EPOCH": 3853,
    "BSTAR": 0.00017994252,
    "MEAN_MOTION_DOT": 0.00002079,
    "MEAN_MOTION_DDOT": 0
   }
  },
  {
   "norad": 67228,
   "name": "QPS-SAR-15 (SUKUNAMI-I)",
   "intl": "2025-307A",
   "group": "sar",
   "gcat": {
    "class": "B",
    "category": "IMG-R",
    "owner": "QPS",
    "state": "J"
   },
   "omm": {
    "OBJECT_NAME": "QPS-SAR-15 (SUKUNAMI-I)",
    "OBJECT_ID": "2025-307A",
    "EPOCH": "2026-07-20T21:14:42.112896",
    "MEAN_MOTION": 14.99220725,
    "ECCENTRICITY": 0.00110867,
    "INCLINATION": 42.0074,
    "RA_OF_ASC_NODE": 42.8105,
    "ARG_OF_PERICENTER": 221.4725,
    "MEAN_ANOMALY": 138.526,
    "EPHEMERIS_TYPE": 0,
    "CLASSIFICATION_TYPE": "U",
    "NORAD_CAT_ID": 67228,
    "ELEMENT_SET_NO": 999,
    "REV_AT_EPOCH": 3174,
    "BSTAR": 0.00023115431,
    "MEAN_MOTION_DOT": 0.00002684,
    "MEAN_MOTION_DDOT": 0
   }
  },
  {
   "norad": 58578,
   "name": "QPS-SAR-5 (TSUKUYOMI-I)",
   "intl": "2023-196A",
   "group": "sar",
   "gcat": {
    "class": "B",
    "category": "IMG-R",
    "owner": "QPS",
    "state": "J"
   },
   "omm": {
    "OBJECT_NAME": "QPS-SAR-5 (TSUKUYOMI-I)",
    "OBJECT_ID": "2023-196A",
    "EPOCH": "2026-07-20T22:41:15.789696",
    "MEAN_MOTION": 15.23258005,
    "ECCENTRICITY": 0.00260042,
    "INCLINATION": 42.0078,
    "RA_OF_ASC_NODE": 183.5337,
    "ARG_OF_PERICENTER": 151.3077,
    "MEAN_ANOMALY": 208.9193,
    "EPHEMERIS_TYPE": 0,
    "CLASSIFICATION_TYPE": "U",
    "NORAD_CAT_ID": 58578,
    "ELEMENT_SET_NO": 999,
    "REV_AT_EPOCH": 14339,
    "BSTAR": 0.00033998437,
    "MEAN_MOTION_DOT": 0.00008066,
    "MEAN_MOTION_DDOT": 0
   }
  },
  {
   "norad": 59447,
   "name": "QPS-SAR-7 (TSUKUYOMI-II)",
   "intl": "2024-066F",
   "group": "sar",
   "gcat": {
    "class": "B",
    "category": "IMG-R",
    "owner": "QPS",
    "state": "J"
   },
   "omm": {
    "OBJECT_NAME": "QPS-SAR-7 (TSUKUYOMI-II)",
    "OBJECT_ID": "2024-066F",
    "EPOCH": "2026-07-20T22:17:50.484192",
    "MEAN_MOTION": 15.09286985,
    "ECCENTRICITY": 0.00016989,
    "INCLINATION": 45.6041,
    "RA_OF_ASC_NODE": 68.2,
    "ARG_OF_PERICENTER": 188.0295,
    "MEAN_ANOMALY": 172.0563,
    "EPHEMERIS_TYPE": 0,
    "CLASSIFICATION_TYPE": "U",
    "NORAD_CAT_ID": 59447,
    "ELEMENT_SET_NO": 999,
    "REV_AT_EPOCH": 12532,
    "BSTAR": 0.00026758137,
    "MEAN_MOTION_DOT": 0.00004079,
    "MEAN_MOTION_DDOT": 0
   }
  }
 ]
}
