QPS-SAR-5 (TSUKUYOMI-I) 
1 58578U 23196A   26201.94532164  .00008066  00000+0  33998-3 0  9993
2 58578  42.0078 183.5337 0026004 151.3077 208.9193 15.23258005143395
QPS-SAR-7 (TSUKUYOMI-II)
1 59447U 24066F   26201.92905653  .00004079  00000+0  26758-3 0  9997
2 59447  45.6041  68.2000 0001698 188.0295 172.0563 15.09286985125324
PRSC-EO1                
1 62725U 25012A   26201.94925269  .00004719  00000+0  23753-3 0  9992
2 62725  97.4208 273.7463 0007159 130.4584 229.7275 15.17663483 83316
QPS-SAR-10 (WADATSUMI-I)
1 64055U 25104A   26201.97158825  .00002903  00000+0  23147-3 0  9991
2 64055  42.0038  92.6051 0013488 204.9755 155.0420 15.02011667 64510
QPS-SAR-11 (YAMATSUMI-I)
1 64340U 25125A   26201.51205622  .00002586  00000+0  20872-3 0  9998
2 64340  42.0091   7.9909 0010622 336.2869  23.7467 15.01857895 60630
PRSC-S1                 
1 65055U 25164A   26201.94031550  .00003141  00000+0  21966-3 0  9992
2 65055  41.1302  97.6789 0007498 232.4302 127.5831 15.06666299 53526
QPS-SAR-12 (KUSHINADA-I)
1 65116U 25169A   26201.97542342  .00002840  00000+0  23244-3 0  9990
2 65116  42.0099 189.8760 0006292  72.4295 287.7218 15.01093037 52496
QPS-SAR-14 (YACHIHOKO-I)
1 66316U 25252A   26201.62651042  .00002079  00000+0  17994-3 0  9995
2 66316  42.0050 307.9628 0004106 117.6126 242.5117 14.99771863 38531
QPS-SAR-15 (SUKUNAMI-I) 
1 67228U 25307A   26201.88520964  .00002684  00000+0  23115-3 0  9999
2 67228  42.0074  42.8105 0011086 221.4725 138.5260 14.99220725 31744
PRSC-E03                
1 68835U 26092A   26201.45659774  .00001074  00000+0  77985-4 0  9998
2 68835  38.0004 253.4742 0005006 283.2867  76.7337 15.06821808 12972
